*******************************************************************************
Ephemeris / WWW_USER Fri Mar  7 10:32:03 2025 Pasadena, USA      / Horizons    
*******************************************************************************
Target body name: (2018 RY7)                      {source: JPL#20}
Center body name: Earth (399)                     {source: DE441}
Center-site name: Mauna Kea
*******************************************************************************
Start time      : A.D. 2018-Sep-03 04:45:00.0000 UT      
Stop  time      : A.D. 2018-Sep-03 15:57:00.0000 UT      
Step-size       : 1 minutes
*******************************************************************************
Target pole/equ : undefined
Target radii    : undefined                                                    
Center geodetic : 204.5278, 19.8260847, 4.21024   {E-lon(deg),Lat(deg),Alt(km)}
Center cylindric: 204.5278, 6006.35451, 2151.0229 {E-lon(deg),Dxy(km),Dz(km)}
Center pole/equ : ITRF93                          {East-longitude positive}
Center radii    : 6378.137, 6378.137, 6356.752 km {Equator_a, b, pole_c}       
Target primary  : Sun
Vis. interferer : MOON (R_eq= 1737.400) km        {source: DE441}
Rel. light bend : Sun                             {source: DE441}
Rel. lght bnd GM: 1.3271E+11 km^3/s^2                                          
Small-body perts: Yes                             {source: SB441-N16}
Atmos refraction: NO (AIRLESS)
RA format       : HMS
Time format     : CAL 
Calendar mode   : Mixed Julian/Gregorian
RTS-only print  : NO       
EOP file        : eop.250306.p250602                                           
EOP coverage    : DATA-BASED 1962-JAN-20 TO 2025-MAR-06. PREDICTS-> 2025-JUN-01
Units conversion: 1 au= 149597870.700 km, c= 299792.458 km/s, 1 day= 86400.0 s 
Table cut-offs 1: Elevation (-90.0deg=NO ),Airmass (>38.000=NO), Daylight (YES)
Table cut-offs 2: Solar elongation (  0.0,180.0=NO ),Local Hour Angle( 0.0=NO )
Table cut-offs 3: RA/DEC angular rate (     0.0=NO )                           
*******************************************************************************
Initial IAU76/J2000 heliocentric ecliptic osculating elements (au, days, deg.):
  EPOCH=  2458422.5 ! 2018-Oct-31.00 (TDB)         Residual RMS= .22459        
   EC= .1470549687381346   QR= .8667733479166969   TP= 2458516.8896767548      
   OM= 2.838668085760325   W=  136.9006026425241   IN= 13.35135890147074       
  Equivalent ICRF heliocentric cartesian coordinates (au, au/d):
   X= 8.791791513870114E-01  Y= 4.508422091141234E-01  Z= 3.244113040133835E-01
  VX=-1.085418916943652E-02 VY= 1.006005810562689E-02 VZ= 7.673980932675997E-03
Asteroid physical parameters (km, seconds, rotational period in hours):        
   GM= n.a.                RAD= n.a.               ROTPER= n.a.                
   H= 24.4                 G= .150                 B-V= n.a.                   
                           ALBEDO= n.a.            STYP= n.a.                  
*******************************************************************************
 Date__(UT)__HR:MN     R.A._________(ICRF)_________DEC
******************************************************
$$SOE
 2018-Sep-03 04:45 C   01 51 29.029843 -15 57 30.87648
 2018-Sep-03 04:46 C   01 51 28.965776 -15 57 29.95621
 2018-Sep-03 04:47 C   01 51 28.901660 -15 57 29.03605
 2018-Sep-03 04:48 C   01 51 28.837493 -15 57 28.11600
 2018-Sep-03 04:49 C   01 51 28.773277 -15 57 27.19607
 2018-Sep-03 04:50 C   01 51 28.709009 -15 57 26.27625
 2018-Sep-03 04:51 C   01 51 28.644691 -15 57 25.35655
 2018-Sep-03 04:52 C   01 51 28.580323 -15 57 24.43695
 2018-Sep-03 04:53 C   01 51 28.515903 -15 57 23.51747
 2018-Sep-03 04:54 C   01 51 28.451432 -15 57 22.59809
 2018-Sep-03 04:55 C   01 51 28.386910 -15 57 21.67883
 2018-Sep-03 04:56 C   01 51 28.322337 -15 57 20.75967
 2018-Sep-03 04:57 C   01 51 28.257711 -15 57 19.84062
 2018-Sep-03 04:58 C   01 51 28.193034 -15 57 18.92167
 2018-Sep-03 04:59 N   01 51 28.128305 -15 57 18.00284
 2018-Sep-03 05:00 N   01 51 28.063524 -15 57 17.08410
 2018-Sep-03 05:01 N   01 51 27.998691 -15 57 16.16547
 2018-Sep-03 05:02 N   01 51 27.933805 -15 57 15.24695
 2018-Sep-03 05:03 N   01 51 27.868867 -15 57 14.32852
 2018-Sep-03 05:04 N   01 51 27.803876 -15 57 13.41020
 2018-Sep-03 05:05 N   01 51 27.738832 -15 57 12.49198
 2018-Sep-03 05:06 N   01 51 27.673735 -15 57 11.57386
 2018-Sep-03 05:07 N   01 51 27.608585 -15 57 10.65583
 2018-Sep-03 05:08 N   01 51 27.543382 -15 57 09.73791
 2018-Sep-03 05:09 N   01 51 27.478125 -15 57 08.82008
 2018-Sep-03 05:10 N   01 51 27.412815 -15 57 07.90235
 2018-Sep-03 05:11 N   01 51 27.347451 -15 57 06.98471
 2018-Sep-03 05:12 N   01 51 27.282032 -15 57 06.06717
 2018-Sep-03 05:13 N   01 51 27.216560 -15 57 05.14972
 2018-Sep-03 05:14 N   01 51 27.151034 -15 57 04.23237
 2018-Sep-03 05:15 N   01 51 27.085453 -15 57 03.31511
 2018-Sep-03 05:16 N   01 51 27.019818 -15 57 02.39794
 2018-Sep-03 05:17 N   01 51 26.954128 -15 57 01.48086
 2018-Sep-03 05:18 N   01 51 26.888383 -15 57 00.56387
 2018-Sep-03 05:19 N   01 51 26.822584 -15 56 59.64696
 2018-Sep-03 05:20 N   01 51 26.756729 -15 56 58.73015
 2018-Sep-03 05:21 N   01 51 26.690819 -15 56 57.81342
 2018-Sep-03 05:22 N   01 51 26.624854 -15 56 56.89678
 2018-Sep-03 05:23 N   01 51 26.558833 -15 56 55.98023
 2018-Sep-03 05:24 N   01 51 26.492757 -15 56 55.06375
 2018-Sep-03 05:25 A   01 51 26.426625 -15 56 54.14737
 2018-Sep-03 05:26 A   01 51 26.360437 -15 56 53.23106
 2018-Sep-03 05:27 A   01 51 26.294194 -15 56 52.31484
 2018-Sep-03 05:28 A   01 51 26.227894 -15 56 51.39869
 2018-Sep-03 05:29 A   01 51 26.161537 -15 56 50.48263
 2018-Sep-03 05:30 A   01 51 26.095125 -15 56 49.56665
 2018-Sep-03 05:31 A   01 51 26.028656 -15 56 48.65074
 2018-Sep-03 05:32 A   01 51 25.962130 -15 56 47.73491
 2018-Sep-03 05:33 A   01 51 25.895547 -15 56 46.81916
 2018-Sep-03 05:34 A   01 51 25.828908 -15 56 45.90348
 2018-Sep-03 05:35 A   01 51 25.762211 -15 56 44.98788
 2018-Sep-03 05:36 A   01 51 25.695458 -15 56 44.07235
 2018-Sep-03 05:37 A   01 51 25.628647 -15 56 43.15689
 2018-Sep-03 05:38 A   01 51 25.561778 -15 56 42.24150
 2018-Sep-03 05:39 A   01 51 25.494853 -15 56 41.32619
 2018-Sep-03 05:40 A   01 51 25.427869 -15 56 40.41095
 2018-Sep-03 05:41 A   01 51 25.360828 -15 56 39.49577
 2018-Sep-03 05:42 A   01 51 25.293729 -15 56 38.58066
 2018-Sep-03 05:43 A   01 51 25.226572 -15 56 37.66562
 2018-Sep-03 05:44 A   01 51 25.159357 -15 56 36.75065
 2018-Sep-03 05:45 A   01 51 25.092084 -15 56 35.83574
 2018-Sep-03 05:46 A   01 51 25.024752 -15 56 34.92090
 2018-Sep-03 05:47 A   01 51 24.957362 -15 56 34.00612
 2018-Sep-03 05:48 A   01 51 24.889913 -15 56 33.09140
 2018-Sep-03 05:49 A   01 51 24.822406 -15 56 32.17674
 2018-Sep-03 05:50 A   01 51 24.754840 -15 56 31.26214
 2018-Sep-03 05:51     01 51 24.687215 -15 56 30.34761
 2018-Sep-03 05:52     01 51 24.619531 -15 56 29.43313
 2018-Sep-03 05:53     01 51 24.551788 -15 56 28.51871
 2018-Sep-03 05:54     01 51 24.483986 -15 56 27.60435
 2018-Sep-03 05:55     01 51 24.416124 -15 56 26.69004
 2018-Sep-03 05:56     01 51 24.348203 -15 56 25.77579
 2018-Sep-03 05:57     01 51 24.280223 -15 56 24.86159
 2018-Sep-03 05:58     01 51 24.212183 -15 56 23.94744
 2018-Sep-03 05:59     01 51 24.144083 -15 56 23.03335
 2018-Sep-03 06:00     01 51 24.075924 -15 56 22.11931
 2018-Sep-03 06:01     01 51 24.007704 -15 56 21.20532
 2018-Sep-03 06:02     01 51 23.939425 -15 56 20.29138
 2018-Sep-03 06:03     01 51 23.871086 -15 56 19.37748
 2018-Sep-03 06:04     01 51 23.802686 -15 56 18.46364
 2018-Sep-03 06:05     01 51 23.734226 -15 56 17.54984
 2018-Sep-03 06:06     01 51 23.665706 -15 56 16.63608
 2018-Sep-03 06:07     01 51 23.597125 -15 56 15.72237
 2018-Sep-03 06:08     01 51 23.528484 -15 56 14.80870
 2018-Sep-03 06:09     01 51 23.459782 -15 56 13.89508
 2018-Sep-03 06:10     01 51 23.391019 -15 56 12.98150
 2018-Sep-03 06:11     01 51 23.322195 -15 56 12.06795
 2018-Sep-03 06:12     01 51 23.253311 -15 56 11.15445
 2018-Sep-03 06:13     01 51 23.184366 -15 56 10.24099
 2018-Sep-03 06:14     01 51 23.115359 -15 56 09.32756
 2018-Sep-03 06:15     01 51 23.046292 -15 56 08.41417
 2018-Sep-03 06:16     01 51 22.977163 -15 56 07.50082
 2018-Sep-03 06:17     01 51 22.907973 -15 56 06.58750
 2018-Sep-03 06:18     01 51 22.838721 -15 56 05.67421
 2018-Sep-03 06:19     01 51 22.769408 -15 56 04.76096
 2018-Sep-03 06:20     01 51 22.700033 -15 56 03.84774
 2018-Sep-03 06:21     01 51 22.630597 -15 56 02.93455
 2018-Sep-03 06:22     01 51 22.561099 -15 56 02.02139
 2018-Sep-03 06:23     01 51 22.491540 -15 56 01.10826
 2018-Sep-03 06:24     01 51 22.421918 -15 56 00.19516
 2018-Sep-03 06:25     01 51 22.352235 -15 55 59.28208
 2018-Sep-03 06:26     01 51 22.282489 -15 55 58.36903
 2018-Sep-03 06:27     01 51 22.212682 -15 55 57.45600
 2018-Sep-03 06:28     01 51 22.142812 -15 55 56.54300
 2018-Sep-03 06:29     01 51 22.072880 -15 55 55.63002
 2018-Sep-03 06:30     01 51 22.002886 -15 55 54.71706
 2018-Sep-03 06:31     01 51 21.932830 -15 55 53.80413
 2018-Sep-03 06:32     01 51 21.862711 -15 55 52.89121
 2018-Sep-03 06:33     01 51 21.792530 -15 55 51.97831
 2018-Sep-03 06:34     01 51 21.722286 -15 55 51.06543
 2018-Sep-03 06:35     01 51 21.651980 -15 55 50.15257
 2018-Sep-03 06:36     01 51 21.581611 -15 55 49.23972
 2018-Sep-03 06:37     01 51 21.511179 -15 55 48.32689
 2018-Sep-03 06:38     01 51 21.440685 -15 55 47.41407
 2018-Sep-03 06:39     01 51 21.370128 -15 55 46.50127
 2018-Sep-03 06:40     01 51 21.299508 -15 55 45.58847
 2018-Sep-03 06:41     01 51 21.228825 -15 55 44.67569
 2018-Sep-03 06:42     01 51 21.158079 -15 55 43.76292
 2018-Sep-03 06:43     01 51 21.087270 -15 55 42.85016
 2018-Sep-03 06:44     01 51 21.016398 -15 55 41.93740
 2018-Sep-03 06:45     01 51 20.945462 -15 55 41.02465
 2018-Sep-03 06:46     01 51 20.874464 -15 55 40.11191
 2018-Sep-03 06:47     01 51 20.803403 -15 55 39.19917
